OBJECT_NAME,OBJECT_ID,EPOCH,MEAN_MOTION,ECCENTRICITY,INCLINATION,RA_OF_ASC_NODE,ARG_OF_PERICENTER,MEAN_ANOMALY,EPHEMERIS_TYPE,CLASSIFICATION_TYPE,NORAD_CAT_ID,ELEMENT_SET_NO,REV_AT_EPOCH,BSTAR,MEAN_MOTION_DOT,MEAN_MOTION_DDOT
ONEWEB-0087,2020-020AD,2026-07-20T23:35:59.436384,13.11418629,.00016001,87.8908,14.3177,98.0354,262.0955,0,U,45451,999,30701,-.53315933E-3,-.176E-5,0
ONEWEB-0082,2020-020AE,2026-07-20T23:31:06.176640,13.11418807,.00013351,87.8899,14.3321,96.4688,263.6592,0,U,45452,999,30710,-.81004711E-3,-.274E-5,0
ONEWEB-0050,2020-020AF,2026-07-21T02:45:54.943200,14.90483596,.00031539,88.9278,228.6013,159.1492,200.9866,0,U,45453,999,34543,.1149247E-3,.1143E-4,0
ONEWEB-0034,2020-020AG,2026-07-21T00:25:15.857760,13.11415680,.00017981,87.8897,14.3345,91.1527,268.9807,0,U,45454,999,30702,.13483348E-2,.491E-5,0
ONEWEB-0060,2020-020AH,2026-07-21T04:49:55.377696,13.11416929,.00014964,87.8890,14.2933,125.6074,234.5194,0,U,45455,999,30700,-.15480746E-2,-.536E-5,0
ONEWEB-0086,2020-020AJ,2026-07-21T00:39:28.217088,13.11415377,.00020461,87.8896,14.3258,114.3035,245.8307,0,U,45456,999,30704,-.19893452E-3,-.58E-6,0
ONEWEB-0088,2020-020AK,2026-07-21T00:07:56.019936,13.11417413,.00016081,87.8905,14.3055,79.8257,280.3052,0,U,45457,999,30697,.14662057E-2,.532E-5,0
ONEWEB-0102,2020-100A,2026-07-20T21:46:07.378176,13.12444366,.00020828,87.8970,343.9700,102.5390,257.5972,0,U,47258,999,26915,.32462676E-3,.13E-5,0
ONEWEB-0109,2020-100B,2026-07-20T21:58:19.350336,13.12443716,.00020046,87.8979,343.9549,96.6300,263.5057,0,U,47259,999,26898,.87152832E-3,.326E-5,0
ONEWEB-0110,2020-100C,2026-07-20T22:37:21.815904,13.12442102,.00018996,87.8979,343.9336,106.3967,253.7371,0,U,47260,999,26915,-.22497353E-3,-.68E-6,0
ONEWEB-0111,2020-100D,2026-07-20T21:31:28.912224,13.12443942,.00017545,87.8978,343.9614,99.7244,260.4082,0,U,47261,999,26898,-.43973311E-3,-.145E-5,0
ONEWEB-0114,2020-100E,2026-07-21T03:44:44.994912,13.12442317,.00020498,87.8983,343.9082,94.4260,265.7102,0,U,47262,999,26897,.11882067E-2,.44E-5,0
ONEWEB-0117,2020-100F,2026-07-20T22:03:12.531456,13.12442884,.00018814,87.8979,343.9446,98.4709,261.6633,0,U,47263,999,26895,.95794595E-3,.357E-5,0
ONEWEB-0118,2020-100G,2026-07-20T22:51:59.702976,13.12441153,.00018838,87.8979,343.9407,87.5501,272.5843,0,U,47264,999,26915,-.91039743E-3,-.315E-5,0
ONEWEB-0119,2020-100H,2026-07-20T21:38:48.536160,13.12443938,.00018797,87.8968,343.9646,96.6527,263.4816,0,U,47265,999,26912,-.29472639E-3,-.93E-6,0
ONEWEB-0120,2020-100J,2026-07-21T03:42:30.860640,13.12442367,.0002063,87.8970,343.9160,95.5131,264.6233,0,U,47266,999,26918,.12111404E-2,.448E-5,0
ONEWEB-0121,2020-100K,2026-07-20T21:55:53.148576,13.12443562,.00015972,87.8978,343.9531,103.1217,257.0090,0,U,47267,999,26906,.7651787E-3,.288E-5,0
ONEWEB-0122,2020-100L,2026-07-20T21:47:21.027264,13.12442699,.00020325,87.8979,343.9594,99.2492,260.8866,0,U,47268,999,26897,.3441168E-3,.137E-5,0
ONEWEB-0123,2020-100M,2026-07-20T21:41:14.489952,13.12443763,.00018523,87.8968,343.9635,93.8435,266.2905,0,U,47269,999,26911,.20192947E-4,.2E-6,0
ONEWEB-0124,2020-100N,2026-07-21T02:55:56.641440,13.12443390,.00017511,87.8967,343.9227,98.6210,261.5117,0,U,47270,999,26902,-.10312849E-2,-.358E-5,0
ONEWEB-0125,2020-100P,2026-07-20T22:44:39.948576,13.12441649,.0001559,87.8981,343.9447,94.1209,266.0098,0,U,47271,999,26906,-.59655725E-3,-.202E-5,0
ONEWEB-0126,2020-100Q,2026-07-20T21:24:22.595616,13.12443304,.00019692,87.8972,343.9690,95.2860,264.8493,0,U,47272,999,26912,-.91821056E-3,-.318E-5,0
ONEWEB-0127,2020-100R,2026-07-20T09:36:41.140224,13.12442412,.00020134,87.8966,344.0634,97.7856,262.3501,0,U,47273,999,26908,.76961756E-3,.29E-5,0
ONEWEB-0128,2020-100S,2026-07-21T02:36:25.546464,13.12442653,.0001877,87.8966,343.9368,106.9208,253.2126,0,U,47274,999,26919,-.88575552E-3,-.306E-5,0
ONEWEB-0129,2020-100T,2026-07-20T22:27:36.309024,13.12441163,.00029141,87.8978,343.9480,89.3823,270.7639,0,U,47275,999,26910,.4766026E-3,.184E-5,0
ONEWEB-0130,2020-100U,2026-07-20T23:06:37.579680,13.12443298,.00019489,87.8979,343.9387,98.6764,261.4586,0,U,47276,999,26907,-.13626736E-2,-.477E-5,0
ONEWEB-0131,2020-100V,2026-07-21T02:41:18.891744,13.12442978,.00018952,87.8967,343.9236,102.4902,257.6439,0,U,47277,999,26913,-.11543461E-2,-.403E-5,0
ONEWEB-0132,2020-100W,2026-07-20T21:53:26.663424,13.12443370,.0001857,87.8969,343.9663,99.5084,260.6255,0,U,47278,999,26900,.7718847E-3,.29E-5,0
ONEWEB-0133,2020-100X,2026-07-20T22:17:37.638240,13.12443289,.00018054,87.8985,343.9425,99.9137,260.2196,0,U,47279,999,26916,.12607475E-2,.466E-5,0
ONEWEB-0134,2020-100Y,2026-07-21T03:03:16.013088,13.12443972,.00020984,87.8981,343.9006,101.3634,258.7730,0,U,47280,999,26916,-.48514615E-3,-.162E-5,0
ONEWEB-0135,2020-100Z,2026-07-20T22:42:13.423680,13.12442370,.00020385,87.8968,343.9547,103.9442,256.1914,0,U,47281,999,26916,-.21580867E-3,-.65E-6,0
ONEWEB-0136,2020-100AA,2026-07-21T02:48:37.367424,13.12442890,.00021579,87.8977,343.9050,101.6397,258.4974,0,U,47282,999,26911,-.11452643E-2,-.399E-5,0
ONEWEB-0137,2020-100AB,2026-07-21T03:37:25.231008,13.12443166,.0001799,87.8986,343.9097,95.0036,265.1298,0,U,47283,999,26902,.10443909E-2,.388E-5,0
ONEWEB-0138,2020-100AC,2026-07-21T03:05:42.546624,13.12443823,.00020775,87.8977,343.9187,98.8386,261.2978,0,U,47284,999,26910,-.53861798E-3,-.181E-5,0
ONEWEB-0139,2020-100AD,2026-07-20T20:45:20.726208,13.12441409,.00019105,87.8978,343.9566,95.6641,264.4705,0,U,47285,999,26914,.2982584E-5,.14E-6,0
ONEWEB-0140,2020-100AE,2026-07-20T21:29:02.501376,13.12443563,.00018021,87.8980,343.9425,102.5353,257.5978,0,U,47286,999,26911,-.81279358E-3,-.28E-5,0
ONEWEB-0141,2020-100AF,2026-07-21T02:14:16.093248,13.12442530,.00017716,87.8979,343.9078,87.7819,272.3513,0,U,47287,999,26912,.45275358E-3,.176E-5,0
ONEWEB-0142,2020-100AG,2026-07-20T22:18:01.942560,13.12443826,.00021023,87.8973,343.9599,87.6793,272.4576,0,U,47288,999,26909,.10367731E-2,.386E-5,0
ONEWEB-0143,2020-100AH,2026-07-20T22:32:28.271040,13.12442213,.00018264,87.8974,343.9575,95.2969,264.8368,0,U,47289,999,26907,.41335847E-3,.161E-5,0
ONEWEB-0144,2020-100AJ,2026-07-21T03:20:21.172416,13.12443950,.00022289,87.8983,343.8944,95.8485,264.2898,0,U,47290,999,26902,.68858252E-3,.26E-5,0
ONEWEB-0145,2020-100AK,2026-07-21T02:38:51.901152,13.12442825,.00019357,87.8971,343.9238,95.6628,264.4721,0,U,47291,999,26921,-.11045386E-2,-.385E-5,0
ONEWEB-0146,2020-100AL,2026-07-21T02:33:59.285952,13.12442497,.00015933,87.8980,343.9188,104.4089,255.7217,0,U,47292,999,26912,-.90859795E-3,-.314E-5,0
ONEWEB-0147,2020-100AM,2026-07-21T03:34:59.179584,13.12443581,.00019318,87.8979,343.8928,101.7213,258.4133,0,U,47293,999,26902,.10294656E-2,.383E-5,0
ONEWEB-0115,2021-025A,2026-07-20T20:18:35.477280,13.13467572,.00018707,87.8983,313.5266,103.0558,257.0780,0,U,48042,999,25801,.26729307E-2,.989E-5,0
ONEWEB-0152,2021-025B,2026-07-21T00:17:24.842112,13.13473132,.00018935,87.8993,313.4924,102.9890,257.1451,0,U,48043,999,25799,-.10372654E-3,-.25E-6,0
ONEWEB-0153,2021-025C,2026-07-20T20:06:21.549888,13.13469870,.00020137,87.8980,313.5271,98.8025,261.3332,0,U,48044,999,25796,.83392309E-3,.317E-5,0
ONEWEB-0154,2021-025D,2026-07-21T01:30:34.195392,13.13470540,.00020277,87.8986,313.4821,105.4660,254.6693,0,U,48045,999,25795,.79423457E-3,.303E-5,0
ONEWEB-0116,2021-025E,2026-07-20T20:57:32.434848,13.13469772,.00018511,87.8989,313.5171,103.6786,256.4549,0,U,48046,999,25807,-.8821404E-3,-.309E-5,0
ONEWEB-0150,2021-025F,2026-07-21T00:02:49.181568,13.13469784,.00018441,87.8991,313.4887,94.4165,265.7175,0,U,48047,999,25798,.78169311E-3,.298E-5,0
ONEWEB-0107,2021-025G,2026-07-21T00:05:14.498592,13.13472327,.00020729,87.8991,313.4842,95.4781,264.6585,0,U,48048,999,25796,.72730614E-3,.278E-5,0
ONEWEB-0101,2021-025H,2026-07-20T19:32:13.203744,13.13471750,.00021053,87.8977,313.5344,101.8141,258.3225,0,U,48049,999,25791,-.58982545E-3,-.203E-5,0
ONEWEB-0113,2021-025J,2026-07-20T19:51:45.224928,13.13891066,.00018618,87.8982,313.4387,96.3401,263.7941,0,U,48050,999,25802,.36824896E-3,.148E-5,0
ONEWEB-0112,2021-025K,2026-07-21T00:12:34.084512,13.13469339,.00022124,87.8990,313.4817,100.3063,259.8316,0,U,48051,999,25803,.22746789E-3,.96E-6,0
ONEWEB-0156,2021-025L,2026-07-21T00:24:43.772256,13.13469173,.00019594,87.8989,313.4897,96.0118,264.1235,0,U,48052,999,25801,-.98655739E-3,-.348E-5,0
ONEWEB-0161,2021-025M,2026-07-20T20:08:47.083776,13.13473248,.00020511,87.8988,313.5260,94.8362,265.3001,0,U,48053,999,25792,.99640679E-3,.377E-5,0
ONEWEB-0158,2021-025N,2026-07-20T20:59:59.183520,13.13471763,.000189,87.8988,313.5163,109.4892,250.6442,0,U,48054,999,25805,-.79550283E-3,-.278E-5,0
ONEWEB-0157,2021-025P,2026-07-20T19:46:50.533536,13.13471719,.00022681,87.8985,313.5314,94.6383,265.5005,0,U,48055,999,25798,.40204489E-3,.16E-5,0
ONEWEB-0162,2021-025Q,2026-07-21T00:41:37.544928,13.13469643,.00018611,87.8983,313.4907,95.8019,264.3323,0,U,48056,999,25798,-.81452885E-3,-.285E-5,0
ONEWEB-0155,2021-025R,2026-07-21T00:51:32.521248,13.13473167,.00020809,87.8988,313.4866,95.4671,264.6696,0,U,48057,999,25812,-.38163355E-2,-.1381E-4,0
ONEWEB-0149,2021-025S,2026-07-21T01:23:15.839808,13.13470550,.00018361,87.8985,313.4860,95.0671,265.0668,0,U,48058,999,25793,.45007164E-3,.177E-5,0
ONEWEB-0148,2021-025T,2026-07-21T00:29:37.666176,13.13469238,.00018237,87.8982,313.4981,82.4855,277.6481,0,U,48059,999,25805,-.62971855E-3,-.217E-5,0
ONEWEB-0160,2021-025U,2026-07-21T00:53:59.727840,13.13470053,.0001593,87.8979,313.4909,121.4360,238.6925,0,U,48060,999,25800,-.79190551E-3,-.276E-5,0
ONEWEB-0163,2021-025V,2026-07-20T20:52:40.457280,13.13468911,.00022117,87.8990,313.5210,95.9679,264.1702,0,U,48061,999,25810,-.81689397E-3,-.286E-5,0
ONEWEB-0159,2021-025W,2026-07-21T00:19:52.513536,13.13469829,.00021715,87.8991,313.4863,96.2262,263.9115,0,U,48062,999,25804,.99527608E-4,.49E-6,0
ONEWEB-0164,2021-025X,2026-07-20T20:13:40.429056,13.13469562,.00019233,87.8991,313.5268,102.1428,257.9917,0,U,48063,999,25800,.77281719E-3,.295E-5,0
